GLOBALSTAR M094         
1 39074U 13005C   24166.52542656 -.00000091  00000+0  69086-4 0  9999
2 39074  51.9942 221.5404 0000540 165.6508 194.4374 12.62266989525941
GLOBALSTAR M096         
1 39075U 13005D   24166.53856907 -.00000082  00000+0  11910-3 0  9990
2 39075  52.0080 269.7274 0000920 143.1284 216.9646 12.62266812524867
GLOBALSTAR M078         
1 39076U 13005E   24166.51244424 -.00000192  00000+0 -49301-3 0  9992
2 39076  51.9896 354.8176 0001750  89.7980 270.3087 12.62274004523480
GLOBALSTAR M095         
1 39077U 13005F   24166.53828683 -.00000087  00000+0  92663-4 0  9992
2 39077  51.9819 352.1143 0001469 107.4863 252.6164 12.62263952523340
GLOBALSTAR M087         
1 52888U 22064A   24166.49350940 -.00000101  00000+0  52147-4 0  9993
2 52888  51.9741 217.7754 0009207 359.6313   0.4580 13.37576602 97161
